[{"OBJECT_NAME":"STARLINK-1464","OBJECT_ID":"2020-038X","EPOCH":"2026-03-09T15:10:07.908672","MEAN_MOTION":15.44102768,"ECCENTRICITY":0.0002165,"INCLINATION":53.0521,"RA_OF_ASC_NODE":204.9004,"ARG_OF_PERICENTER":268.0966,"MEAN_ANOMALY":91.9792,"EPHEMERIS_TYPE":0,"CLASSIFICATION_TYPE":"U","NORAD_CAT_ID":45751,"ELEMENT_SET_NO":999,"REV_AT_EPOCH":31664,"BSTAR":0.0018543,"MEAN_MOTION_DOT":0.00086712,"MEAN_MOTION_DDOT":0},{"OBJECT_NAME":"ION SCV-002","OBJECT_ID":"2021-006CV","EPOCH":"2026-03-09T22:24:22.770432","MEAN_MOTION":15.41456912,"ECCENTRICITY":0.00138318,"INCLINATION":97.1152,"RA_OF_ASC_NODE":73.1802,"ARG_OF_PERICENTER":113.9229,"MEAN_ANOMALY":246.3469,"EPHEMERIS_TYPE":0,"CLASSIFICATION_TYPE":"U","NORAD_CAT_ID":47504,"ELEMENT_SET_NO":999,"REV_AT_EPOCH":28472,"BSTAR":0.00039122375,"MEAN_MOTION_DOT":0.00016364,"MEAN_MOTION_DDOT":0}]
